[{"OBJECT_NAME":"UHETSAT","OBJECT_ID":"2023-185E","EPOCH":"2026-03-09T22:39:26.455680","MEAN_MOTION":15.29797662,"ECCENTRICITY":0.00118435,"INCLINATION":97.3584,"RA_OF_ASC_NODE":137.3576,"ARG_OF_PERICENTER":307.7346,"MEAN_ANOMALY":52.2821,"EPHEMERIS_TYPE":0,"CLASSIFICATION_TYPE":"U","NORAD_CAT_ID":58466,"ELEMENT_SET_NO":999,"REV_AT_EPOCH":12611,"BSTAR":0.00030513019,"MEAN_MOTION_DOT":8.749e-5,"MEAN_MOTION_DDOT":0},{"OBJECT_NAME":"STARLINK-35381","OBJECT_ID":"2025-221D","EPOCH":"2026-03-09T10:05:31.501536","MEAN_MOTION":15.30240191,"ECCENTRICITY":0.00010375,"INCLINATION":53.1591,"RA_OF_ASC_NODE":89.493,"ARG_OF_PERICENTER":86.1717,"MEAN_ANOMALY":273.9403,"EPHEMERIS_TYPE":0,"CLASSIFICATION_TYPE":"U","NORAD_CAT_ID":65826,"ELEMENT_SET_NO":999,"REV_AT_EPOCH":2604,"BSTAR":0.0007572518,"MEAN_MOTION_DOT":0.00022163,"MEAN_MOTION_DDOT":0}]
